[ {"OBJECT_NAME": "PAZ", "NORAD_CAT_ID": 43215, "MEAN_MOTION": 15.19154946, "ECCENTRICITY": 0.0001719, "INCLINATION": 97.4448, "RA_OF_ASC_NODE": 112.8971, "ARG_OF_PERICENTER": 86.8254, "MEAN_ANOMALY": 273.3177, "BSTAR": 6.1081e-05, "EPOCH": "2026-04-14T14:38:21"}, {"OBJECT_NAME": "SENTINEL-6A", "NORAD_CAT_ID": 46984, "MEAN_MOTION": 12.80930914, "ECCENTRICITY": 0.0007735, "INCLINATION": 66.0402, "RA_OF_ASC_NODE": 267.5895, "ARG_OF_PERICENTER": 270.5043, "MEAN_ANOMALY": 89.5086, "BSTAR": 2.7350000000000004e-05, "EPOCH": "2026-04-14T09:00:47"}, {"OBJECT_NAME": "SENTINEL-2A", "NORAD_CAT_ID": 40697, "MEAN_MOTION": 14.30821051, "ECCENTRICITY": 0.0001339, "INCLINATION": 98.5635, "RA_OF_ASC_NODE": 180.344, "ARG_OF_PERICENTER": 88.8401, "MEAN_ANOMALY": 271.2935, "BSTAR": 0.0001074, "EPOCH": "2026-04-14T13:52:50"}, {"OBJECT_NAME": "SENTINEL-2B", "NORAD_CAT_ID": 42063, "MEAN_MOTION": 14.30821195, "ECCENTRICITY": 0.0001245, "INCLINATION": 98.5662, "RA_OF_ASC_NODE": 180.2502, "ARG_OF_PERICENTER": 93.0713, "MEAN_ANOMALY": 267.0612, "BSTAR": 7.804700000000001e-05, "EPOCH": "2026-04-14T13:42:24"}, {"OBJECT_NAME": "SENTINEL-1A", "NORAD_CAT_ID": 39634, "MEAN_MOTION": 14.59198889, "ECCENTRICITY": 0.0001407, "INCLINATION": 98.1808, "RA_OF_ASC_NODE": 113.0518, "ARG_OF_PERICENTER": 84.1398, "MEAN_ANOMALY": 275.9962, "BSTAR": 2.6975000000000002e-05, "EPOCH": "2026-04-14T14:18:22"}, {"OBJECT_NAME": "SENTINEL-2C", "NORAD_CAT_ID": 60989, "MEAN_MOTION": 14.30813337, "ECCENTRICITY": 0.0001355, "INCLINATION": 98.5642, "RA_OF_ASC_NODE": 179.8859, "ARG_OF_PERICENTER": 108.434, "MEAN_ANOMALY": 251.6991, "BSTAR": 3.9778000000000004e-05, "EPOCH": "2026-04-14T04:28:35"}, {"OBJECT_NAME": "SENTINEL-3A", "NORAD_CAT_ID": 41335, "MEAN_MOTION": 14.26736064, "ECCENTRICITY": 0.000102, "INCLINATION": 98.6285, "RA_OF_ASC_NODE": 172.8937, "ARG_OF_PERICENTER": 92.2292, "MEAN_ANOMALY": 267.9006, "BSTAR": 4.1564000000000004e-05, "EPOCH": "2026-04-14T14:36:36"}, {"OBJECT_NAME": "SENTINEL-5P", "NORAD_CAT_ID": 42969, "MEAN_MOTION": 14.19507933, "ECCENTRICITY": 0.0001261, "INCLINATION": 98.7927, "RA_OF_ASC_NODE": 47.1413, "ARG_OF_PERICENTER": 85.3728, "MEAN_ANOMALY": 274.7592, "BSTAR": 2.6408e-05, "EPOCH": "2026-04-14T13:15:59"}, {"OBJECT_NAME": "SENTINEL-3B", "NORAD_CAT_ID": 43437, "MEAN_MOTION": 14.26738986, "ECCENTRICITY": 0.0001649, "INCLINATION": 98.6284, "RA_OF_ASC_NODE": 172.6003, "ARG_OF_PERICENTER": 103.9539, "MEAN_ANOMALY": 256.1825, "BSTAR": 4.2199e-05, "EPOCH": "2026-04-14T03:51:58"}, {"OBJECT_NAME": "SENTINEL-1C", "NORAD_CAT_ID": 62261, "MEAN_MOTION": 14.59198442, "ECCENTRICITY": 0.0001383, "INCLINATION": 98.1821, "RA_OF_ASC_NODE": 112.8441, "ARG_OF_PERICENTER": 91.1838, "MEAN_ANOMALY": 268.952, "BSTAR": 2.7846e-05, "EPOCH": "2026-04-14T15:06:46"}, {"OBJECT_NAME": "SENTINEL-1D", "NORAD_CAT_ID": 66315, "MEAN_MOTION": 14.5919863, "ECCENTRICITY": 0.0001361, "INCLINATION": 98.1824, "RA_OF_ASC_NODE": 112.722, "ARG_OF_PERICENTER": 91.2608, "MEAN_ANOMALY": 268.8747, "BSTAR": 1.6711000000000003e-05, "EPOCH": "2026-04-14T11:08:18"}, {"OBJECT_NAME": "SENTINEL-6B", "NORAD_CAT_ID": 66514, "MEAN_MOTION": 12.80930774, "ECCENTRICITY": 0.0007902, "INCLINATION": 66.0402, "RA_OF_ASC_NODE": 267.7149, "ARG_OF_PERICENTER": 269.9686, "MEAN_ANOMALY": 90.0424, "BSTAR": 3.1838e-05, "EPOCH": "2026-04-14T09:01:16"}, {"OBJECT_NAME": "CSS (TIANHE)", "NORAD_CAT_ID": 48274, "MEAN_MOTION": 15.62370155, "ECCENTRICITY": 0.0005452, "INCLINATION": 41.4686, "RA_OF_ASC_NODE": 352.1325, "ARG_OF_PERICENTER": 204.5875, "MEAN_ANOMALY": 155.4705, "BSTAR": 0.00017868000000000002, "EPOCH": "2026-04-14T03:31:26"}, {"OBJECT_NAME": "CSS (MENGTIAN)", "NORAD_CAT_ID": 54216, "MEAN_MOTION": 15.62370155, "ECCENTRICITY": 0.0005452, "INCLINATION": 41.4686, "RA_OF_ASC_NODE": 352.1325, "ARG_OF_PERICENTER": 204.5875, "MEAN_ANOMALY": 155.4705, "BSTAR": 0.00017868000000000002, "EPOCH": "2026-04-14T03:31:26"}, {"OBJECT_NAME": "CSS (WENTIAN)", "NORAD_CAT_ID": 53239, "MEAN_MOTION": 15.62370155, "ECCENTRICITY": 0.0005452, "INCLINATION": 41.4686, "RA_OF_ASC_NODE": 352.1325, "ARG_OF_PERICENTER": 204.5875, "MEAN_ANOMALY": 155.4705, "BSTAR": 0.00017868000000000002, "EPOCH": "2026-04-14T03:31:26"}, {"OBJECT_NAME": "CSSWE", "NORAD_CAT_ID": 38761, "MEAN_MOTION": 15.4114233, "ECCENTRICITY": 0.006101, "INCLINATION": 64.6627, "RA_OF_ASC_NODE": 310.4203, "ARG_OF_PERICENTER": 192.7332, "MEAN_ANOMALY": 167.2268, "BSTAR": 0.00035992, "EPOCH": "2026-04-13T23:46:55"}, {"OBJECT_NAME": "WORLDVIEW-3 (WV-3)", "NORAD_CAT_ID": 40115, "MEAN_MOTION": 14.84916251, "ECCENTRICITY": 0.000242, "INCLINATION": 97.8586, "RA_OF_ASC_NODE": 180.2677, "ARG_OF_PERICENTER": 127.9097, "MEAN_ANOMALY": 232.2337, "BSTAR": 5.8475000000000005e-05, "EPOCH": "2026-04-14T13:23:28"}, {"OBJECT_NAME": "WORLDVIEW-2 (WV-2)", "NORAD_CAT_ID": 35946, "MEAN_MOTION": 14.37925151, "ECCENTRICITY": 0.0005292, "INCLINATION": 98.4701, "RA_OF_ASC_NODE": 178.9102, "ARG_OF_PERICENTER": 59.8863, "MEAN_ANOMALY": 300.2848, "BSTAR": 3.4178e-05, "EPOCH": "2026-04-14T13:30:59"}, {"OBJECT_NAME": "WORLDVIEW-1 (WV-1)", "NORAD_CAT_ID": 32060, "MEAN_MOTION": 15.24189906, "ECCENTRICITY": 0.0001037, "INCLINATION": 97.386, "RA_OF_ASC_NODE": 224.8664, "ARG_OF_PERICENTER": 274.97, "MEAN_ANOMALY": 85.1419, "BSTAR": 0.00015593, "EPOCH": "2026-04-14T05:21:20"}, {"OBJECT_NAME": "GEOEYE 1", "NORAD_CAT_ID": 33331, "MEAN_MOTION": 14.64666288, "ECCENTRICITY": 0.0002897, "INCLINATION": 98.1258, "RA_OF_ASC_NODE": 179.2839, "ARG_OF_PERICENTER": 256.0823, "MEAN_ANOMALY": 104.0058, "BSTAR": 5.2674000000000004e-05, "EPOCH": "2026-04-14T13:13:41"}, {"OBJECT_NAME": "YAOGAN-10", "NORAD_CAT_ID": 36834, "MEAN_MOTION": 14.85154871, "ECCENTRICITY": 0.00014, "INCLINATION": 97.904, "RA_OF_ASC_NODE": 128.5396, "ARG_OF_PERICENTER": 82.8822, "MEAN_ANOMALY": 65.4134, "BSTAR": 0.00011286, "EPOCH": "2026-04-14T15:15:01"}]