WORLDVIEW-1 (WV-1)
1 32060U 07041A   26104.22314837  .00003727  00000+0  15593-3 0  9990
2 32060  97.3860 224.8664 0001037 274.9700  85.1419 15.24189906 33131
GEOEYE 1
1 33331U 08042A   26104.55117531  .00000233  00000+0  52674-4 0  9993
2 33331  98.1258 179.2839 0002897 256.0823 104.0058 14.64666288940832
WORLDVIEW-2 (WV-2)
1 35946U 09055A   26104.56318946  .00000060  00000+0  34178-4 0  9993
2 35946  98.4701 178.9102 0005292  59.8863 300.2848 14.37925151866501
YAOGAN-10
1 36834U 10038A   26104.63543285  .00000912  00000+0  11286-3 0  9997
2 36834  97.9040 128.5396 0001400  82.8822  65.4134 14.85154871847774
SENTINEL-1A
1 39634U 14016A   26104.59609275  .00000081  00000+0  26975-4 0  9994
2 39634  98.1808 113.0518 0001407  84.1398 275.9962 14.59198889640748
WORLDVIEW-3 (WV-3)
1 40115U 14048A   26104.55797051  .00000444  00000+0  58475-4 0  9994
2 40115  97.8586 180.2677 0002420 127.9097 232.2337 14.84916251632464
SENTINEL-2A
1 40697U 15028A   26104.57836648  .00000238  00000+0  10740-3 0  9999
2 40697  98.5635 180.3440 0001339  88.8401 271.2935 14.30821051564637
SENTINEL-3A
1 41335U 16011A   26104.60875601  .00000057  00000+0  41564-4 0  9996
2 41335  98.6285 172.8937 0001020  92.2292 267.9006 14.26736064528994
SENTINEL-2B
1 42063U 17013A   26104.57112034  .00000161  00000+0  78047-4 0  9990
2 42063  98.5662 180.2502 0001245  93.0713 267.0612 14.30821195475549
SENTINEL-5P
1 42969U 17064A   26104.55276987  .00000011  00000+0  26408-4 0  9995
2 42969  98.7927  47.1413 0001261  85.3728 274.7592 14.19507933440531
PAZ
1 43215U 18020A   26104.60997182  .00001216  00000+0  61081-4 0  9990
2 43215  97.4448 112.8971 0001719  86.8254 273.3177 15.19154946451356
SENTINEL-3B
1 43437U 18039A   26104.16109002  .00000058  00000+0  42199-4 0  9995
2 43437  98.6284 172.6003 0001649 103.9539 256.1825 14.26738986414999
SENTINEL-6A
1 46984U 20086A   26104.37554431 -.00000055  00000+0  27350-4 0  9993
2 46984  66.0402 267.5895 0007735 270.5043  89.5086 12.80930914252154
CSS (TIANHE)
1 48274U 21035A   26104.14683642  .00015982  00000+0  17868-3 0  9990
2 48274  41.4686 352.1325 0005452 204.5875 155.4705 15.62370155283155
CSS (WENTIAN)
1 53239U 22085A   26104.14683642  .00015982  00000+0  17868-3 0  9993
2 53239  41.4686 352.1325 0005452 204.5875 155.4705 15.62370155283130
CSS (MENGTIAN)
1 54216U 22143A   26104.14683642  .00015982  00000+0  17868-3 0  9994
2 54216  41.4686 352.1325 0005452 204.5875 155.4705 15.62370155283675
SENTINEL-2C
1 60989U 24157A   26104.18651670  .00000061  00000+0  39778-4 0  9992
2 60989  98.5642 179.8859 0001355 108.4340 251.6991 14.30813337 83837
SENTINEL-1C
1 62261U 24235A   26104.62970744  .00000085  00000+0  27846-4 0  9998
2 62261  98.1821 112.8441 0001383  91.1838 268.9520 14.59198442 72147
SENTINEL-1D
1 66315U 25251A   26104.46410842  .00000033  00000+0  16711-4 0  9993
2 66315  98.1824 112.7220 0001361  91.2608 268.8747 14.59198630 23437
SENTINEL-6B
1 66514U 25264A   26104.37588716 -.00000054  00000+0  31838-4 0  9995
2 66514  66.0402 267.7149 0007902 269.9686  90.0424 12.80930774 18999
CSSWE
1 38761U 12048D   26103.99092435  .00015795  00000+0  35992-3 0  9990
2 38761  64.6627 310.4203 0061010 192.7332 167.2268 15.41142330106492
